{"type": "FeatureCollection", "features": [ {"type": "Feature", "properties": {"norad_id": 28659, "name": "DIRECTV 8", "group": "intelsat", "lat": 0.03185719995456845, "lon": 147.43214731785892, "alt_km": 35794.99379827241, "timestamp": "2025-12-24T11:32:59.671570+00:00", "meta": {"OBJECT_NAME": "DIRECTV 8", "OBJECT_ID": "2005-019A", "EPOCH": "2025-12-23T17:41:55.546944", "MEAN_MOTION": 1.00271595, "ECCENTRICITY": 0.00029818, "INCLINATION": 0.018, "RA_OF_ASC_NODE": 23.2581, "ARG_OF_PERICENTER": 259.0434, "MEAN_ANOMALY": 316.6613, "EPHEMERIS_TYPE": 0, "CLASSIFICATION_TYPE": "U", "NORAD_CAT_ID": 28659, "ELEMENT_SET_NO": 999, "REV_AT_EPOCH": 7531, "BSTAR": 0, "MEAN_MOTION_DOT": 2.2e-07, "MEAN_MOTION_DDOT": 0}, "tle": {"line1": "1 28659U 05019A   25357.73744846  .00000022  00000+0  00000+0 0  9992", "line2": "2 28659   0.0180  23.2581 0002981 259.0434 316.6613  1.00271595 75311"}}, "geometry": {"type": "Point", "coordinates": [147.43214731785892, 0.03185719995456845]}}, {"type": "Feature", "properties": {"norad_id": 28702, "name": "GALAXY 28 (G-28)", "group": "intelsat", "lat": 2.8378718749679464, "lon": 177.77724157293207, "alt_km": 35787.80201400561, "timestamp": "2025-12-24T11:32:59.671583+00:00", "meta": {"OBJECT_NAME": "GALAXY 28 (G-28)", "OBJECT_ID": "2005-022A", "EPOCH": "2025-12-20T00:49:30.482112", "MEAN_MOTION": 1.00271047, "ECCENTRICITY": 0.00029384, "INCLINATION": 2.8382, "RA_OF_ASC_NODE": 81.1982, "ARG_OF_PERICENTER": 194.0723, "MEAN_ANOMALY": 97.2981, "EPHEMERIS_TYPE": 0, "CLASSIFICATION_TYPE": "U", "NORAD_CAT_ID": 28702, "ELEMENT_SET_NO": 999, "REV_AT_EPOCH": 5017, "BSTAR": 0, "MEAN_MOTION_DOT": -1.65e-06, "MEAN_MOTION_DDOT": 0}, "tle": {"line1": "1 28702U 05022A   25354.03438058 -.00000165  00000+0  00000+0 0  9999", "line2": "2 28702   2.8382  81.1982 0002938 194.0723  97.2981  1.00271047 50172"}}, "geometry": {"type": "Point", "coordinates": [177.77724157293207, 2.8378718749679464]}}, {"type": "Feature", "properties": {"norad_id": 29236, "name": "GALAXY 16 (G-16)", "group": "intelsat", "lat": -0.017307236957568205, "lon": 167.45708540281734, "alt_km": 35789.11559150245, "timestamp": "2025-12-24T11:32:59.671597+00:00", "meta": {"OBJECT_NAME": "GALAXY 16 (G-16)", "OBJECT_ID": "2006-023A", "EPOCH": "2025-12-23T16:05:04.821216", "MEAN_MOTION": 1.00271325, "ECCENTRICITY": 0.00025095, "INCLINATION": 0.0451, "RA_OF_ASC_NODE": 194.2073, "ARG_OF_PERICENTER": 78.9639, "MEAN_ANOMALY": 321.5434, "EPHEMERIS_TYPE": 0, "CLASSIFICATION_TYPE": "U", "NORAD_CAT_ID": 29236, "ELEMENT_SET_NO": 999, "REV_AT_EPOCH": 7121, "BSTAR": 0, "MEAN_MOTION_DOT": -1.06e-06, "MEAN_MOTION_DDOT": 0}, "tle": {"line1": "1 29236U 06023A   25357.67019469 -.00000106  00000+0  00000+0 0  9993", "line2": "2 29236   0.0451 194.2073 0002509  78.9639 321.5434  1.00271325 71212"}}, "geometry": {"type": "Point", "coordinates": [167.45708540281734, -0.017307236957568205]}}, {"type": "Feature", "properties": {"norad_id": 29494, "name": "DIRECTV 9S", "group": "intelsat", "lat": 1.9614368870338497, "lon": 165.2603381301557, "alt_km": 35790.56927175204, "timestamp": "2025-12-24T11:32:59.671610+00:00", "meta": {"OBJECT_NAME": "DIRECTV 9S", "OBJECT_ID": "2006-043A", "EPOCH": "2025-12-23T22:55:25.671936", "MEAN_MOTION": 1.00271975, "ECCENTRICITY": 0.000293, "INCLINATION": 1.9673, "RA_OF_ASC_NODE": 83.094, "ARG_OF_PERICENTER": 194.8793, "MEAN_ANOMALY": 57.4163, "EPHEMERIS_TYPE": 0, "CLASSIFICATION_TYPE": "U", "NORAD_CAT_ID": 29494, "ELEMENT_SET_NO": 999, "REV_AT_EPOCH": 4962, "BSTAR": 0, "MEAN_MOTION_DOT": -9.3e-07, "MEAN_MOTION_DDOT": 0}, "tle": {"line1": "1 29494U 06043A   25357.95515824 -.00000093  00000+0  00000+0 0  9993", "line2": "2 29494   1.9673  83.0940 0002930 194.8793  57.4163  1.00271975 49624"}}, "geometry": {"type": "Point", "coordinates": [165.2603381301557, 1.9614368870338497]}}, {"type": "Feature", "properties": {"norad_id": 31307, "name": "GALAXY 17 (G-17)", "group": "intelsat", "lat": 2.5004664030140686, "lon": -178.54446037245887, "alt_km": 35780.11323726512, "timestamp": "2025-12-24T11:32:59.671622+00:00", "meta": {"OBJECT_NAME": "GALAXY 17 (G-17)", "OBJECT_ID": "2007-016B", "EPOCH": "2025-12-24T02:30:13.679136", "MEAN_MOTION": 1.00269352, "ECCENTRICITY": 0.0005354, "INCLINATION": 2.5268, "RA_OF_ASC_NODE": 82.1569, "ARG_OF_PERICENTER": 172.8488, "MEAN_ANOMALY": 150.4435, "EPHEMERIS_TYPE": 0, "CLASSIFICATION_TYPE": "U", "NORAD_CAT_ID": 31307, "ELEMENT_SET_NO": 999, "REV_AT_EPOCH": 6804, "BSTAR": 0, "MEAN_MOTION_DOT": -1.86e-06, "MEAN_MOTION_DDOT": 0}, "tle": {"line1": "1 31307U 07016B   25358.10432499 -.00000186  00000+0  00000+0 0  9997", "line2": "2 31307   2.5268  82.1569 0005354 172.8488 150.4435  1.00269352 68043"}}, "geometry": {"type": "Point", "coordinates": [-178.54446037245887, 2.5004664030140686]}}, {"type": "Feature", "properties": {"norad_id": 31862, "name": "DIRECTV 10", "group": "intelsat", "lat": 0.004426841587704417, "lon": 163.70446446458226, "alt_km": 35785.18581940199, "timestamp": "2025-12-24T11:32:59.671634+00:00", "meta": {"OBJECT_NAME": "DIRECTV 10", "OBJECT_ID": "2007-032A", "EPOCH": "2025-12-23T16:04:04.915776", "MEAN_MOTION": 1.00272171, "ECCENTRICITY": 2.717e-05, "INCLINATION": 0.0092, "RA_OF_ASC_NODE": 113.2913, "ARG_OF_PERICENTER": 95.817, "MEAN_ANOMALY": 21.5753, "EPHEMERIS_TYPE": 0, "CLASSIFICATION_TYPE": "U", "NORAD_CAT_ID": 31862, "ELEMENT_SET_NO": 999, "REV_AT_EPOCH": 4383, "BSTAR": 0, "MEAN_MOTION_DOT": -8.2e-07, "MEAN_MOTION_DDOT": 0}, "tle": {"line1": "1 31862U 07032A   25357.66950134 -.00000082  00000+0  00000+0 0  9997", "line2": "2 31862   0.0092 113.2913 0000271  95.8170  21.5753  1.00272171 43835"}}, "geometry": {"type": "Point", "coordinates": [163.70446446458226, 0.004426841587704417]}}, {"type": "Feature", "properties": {"norad_id": 32253, "name": "INTELSAT 11 (IS-11)", "group": "intelsat", "lat": 0.004289301854387456, "lon": 80.56617042855669, "alt_km": 36167.30107936398, "timestamp": "2025-12-24T11:32:59.671646+00:00", "meta": {"OBJECT_NAME": "INTELSAT 11 (IS-11)", "OBJECT_ID": "2007-044B", "EPOCH": "2025-12-23T17:23:57.267168", "MEAN_MOTION": 0.99052963, "ECCENTRICITY": 0.00085689, "INCLINATION": 3.107, "RA_OF_ASC_NODE": 80.8548, "ARG_OF_PERICENTER": 170.4374, "MEAN_ANOMALY": 279.6071, "EPHEMERIS_TYPE": 0, "CLASSIFICATION_TYPE": "U", "NORAD_CAT_ID": 32253, "ELEMENT_SET_NO": 999, "REV_AT_EPOCH": 6671, "BSTAR": 0, "MEAN_MOTION_DOT": -1.53e-06, "MEAN_MOTION_DDOT": 0}, "tle": {"line1": "1 32253U 07044B   25357.72496837 -.00000153  00000+0  00000+0 0  9996", "line2": "2 32253   3.1070  80.8548 0008568 170.4374 279.6071  0.99052963 66719"}}, "geometry": {"type": "Point", "coordinates": [80.56617042855669, 0.004289301854387456]}}, {"type": "Feature", "properties": {"norad_id": 32388, "name": "HORIZONS-2", "group": "intelsat", "lat": 2.024266532882417, "lon": -167.33517133019086, "alt_km": 35785.00343052209, "timestamp": "2025-12-24T11:32:59.671658+00:00", "meta": {"OBJECT_NAME": "HORIZONS-2", "OBJECT_ID": "2007-063B", "EPOCH": "2025-12-24T03:41:40.295040", "MEAN_MOTION": 1.00270077, "ECCENTRICITY": 0.0004715, "INCLINATION": 2.1495, "RA_OF_ASC_NODE": 82.8378, "ARG_OF_PERICENTER": 196.0522, "MEAN_ANOMALY": 155.6684, "EPHEMERIS_TYPE": 0, "CLASSIFICATION_TYPE": "U", "NORAD_CAT_ID": 32388, "ELEMENT_SET_NO": 999, "REV_AT_EPOCH": 6605, "BSTAR": 0, "MEAN_MOTION_DOT": -2.33e-06, "MEAN_MOTION_DDOT": 0}, "tle": {"line1": "1 32388U 07063B   25358.15393860 -.00000233  00000+0  00000+0 0  9995", "line2": "2 32388   2.1495  82.8378 0004715 196.0522 155.6684  1.00270077 66051"}}, "geometry": {"type": "Point", "coordinates": [-167.33517133019086, 2.024266532882417]}}, {"type": "Feature", "properties": {"norad_id": 32729, "name": "DIRECTV 11", "group": "intelsat", "lat": 0.0054743382910363275, "lon": 167.28815757539667, "alt_km": 35784.732084230185, "timestamp": "2025-12-24T11:32:59.671671+00:00", "meta": {"OBJECT_NAME": "DIRECTV 11", "OBJECT_ID": "2008-013A", "EPOCH": "2025-12-23T11:18:33.914304", "MEAN_MOTION": 1.00266312, "ECCENTRICITY": 7.118e-05, "INCLINATION": 0.0383, "RA_OF_ASC_NODE": 192.497, "ARG_OF_PERICENTER": 321.3622, "MEAN_ANOMALY": 8.8504, "EPHEMERIS_TYPE": 0, "CLASSIFICATION_TYPE": "U", "NORAD_CAT_ID": 32729, "ELEMENT_SET_NO": 999, "REV_AT_EPOCH": 4383, "BSTAR": 0, "MEAN_MOTION_DOT": -1.04e-06, "MEAN_MOTION_DDOT": 0}, "tle": {"line1": "1 32729U 08013A   25357.47122586 -.00000104  00000+0  00000+0 0  9996", "line2": "2 32729   0.0383 192.4970 0000711 321.3622   8.8504  1.00266312 43833"}}, "geometry": {"type": "Point", "coordinates": [167.28815757539667, 0.0054743382910363275]}}, {"type": "Feature", "properties": {"norad_id": 32951, "name": "GALAXY 18 (G-18)", "group": "intelsat", "lat": 0.004910835572926031, "lon": 143.46585497727597, "alt_km": 35794.7163617573, "timestamp": "2025-12-24T11:32:59.671684+00:00", "meta": {"OBJECT_NAME": "GALAXY 18 (G-18)", "OBJECT_ID": "2008-024A", "EPOCH": "2025-12-23T17:40:55.643232", "MEAN_MOTION": 1.00271951, "ECCENTRICITY": 0.00029616, "INCLINATION": 0.0145, "RA_OF_ASC_NODE": 299.576, "ARG_OF_PERICENTER": 337.9968, "MEAN_ANOMALY": 317.1726, "EPHEMERIS_TYPE": 0, "CLASSIFICATION_TYPE": "U", "NORAD_CAT_ID": 32951, "ELEMENT_SET_NO": 999, "REV_AT_EPOCH": 4409, "BSTAR": 0, "MEAN_MOTION_DOT": 4.6e-07, "MEAN_MOTION_DDOT": 0}, "tle": {"line1": "1 32951U 08024A   25357.73675513  .00000046  00000+0  00000+0 0  9991", "line2": "2 32951   0.0145 299.5760 0002961 337.9968 317.1726  1.00271951 44093"}}, "geometry": {"type": "Point", "coordinates": [143.46585497727597, 0.004910835572926031]}}]}